GLOBALSTAR M045         
1 25676U 99019A   26017.08351149 -.00000087  00000+0  60253-4 0  9996
2 25676  51.9978  55.6134 0000265 168.5035 225.2847 12.27070931219657
GLOBALSTAR M019         
1 25677U 99019B   26017.21722079 -.00000185  00000+0 -98948-3 0  9997
2 25677  51.9849 200.6621 0002198  61.0308 110.3842 12.13880798211134
GLOBALSTAR M044         
1 25678U 99019C   26016.92895440 -.00000081  00000+0  43635-4 0  9996
2 25678  51.9940 179.5605 0007211  92.3816  76.7656 11.90264134196779
GLOBALSTAR M042         
1 25679U 99019D   26017.13020991 -.00000122  00000+0 -28487-3 0  9996
2 25679  51.9994 166.9803 0003309  41.4409 130.5230 12.22096093211415
GLOBALSTAR M025         
1 25770U 99031A   26017.26858314 -.00000055  00000+0  38663-3 0  9995
2 25770  51.9841  23.3339 0002291 139.3286 233.2617 11.22560781505759
GLOBALSTAR M049         
1 25771U 99031B   26017.26660646 -.00000135  00000+0 -24061-2 0  9991
2 25771  51.9887  68.8595 0002640  29.1898 330.9046 11.12123521141248
GLOBALSTAR M047         
1 25772U 99031C   26017.29491309 -.00000065  00000+0  13647-3 0  9993
2 25772  51.9846  45.3090 0016253 269.7159  90.1784 11.31931929495359
GLOBALSTAR M052         
1 25773U 99031D   26017.14618949 -.00000122  00000+0 -18857-2 0  9991
2 25773  51.9835 174.7979 0003337 145.3197  25.8696 11.15063518502371
